*******************************************************************************
JPL/HORIZONS                 3554 Amun (1986 EB)           2023-Sep-04 11:24:14
Rec #:    3554 (+COV) Soln.date: 2023-Aug-23_11:26:49   # obs: 1704 (1986-2018)
 
IAU76/J2000 helio. ecliptic osc. elements (au, days, deg., period=Julian yrs):
 
  EPOCH=  2456013.5 ! 2012-Mar-27.00 (TDB)         Residual RMS= .3509
   EC= .2803641064595262   QR= .7006891439391807   TP= 2456167.6077421252
   OM= 358.6486383025199   W=  359.3776256921756   IN= 23.36386476339624
   A= .9736717557151315    MA= 201.9080802747467   ADIST= 1.246654367491082
   PER= .96079             N= 1.025853196          ANGMOM= .016293369
   DAN= .7007              DDN= 1.24663            L= 358.0772921
   B= -.2468103            MOID= .25027299         TP= 2012-Aug-28.1077421252
 
Asteroid physical parameters (km, seconds, rotational period in hours):
   GM= n.a.                RAD= 1.6705             ROTPER= 2.53001
   H= 15.91                G= .150                 B-V= .707
                           ALBEDO= .074            STYP= n.a.

ASTEROID comments: 
1: soln ref.= JPL#264, OCC=0
2: source=ORB
*******************************************************************************

  

*******************************************************************************
Ephemeris / API_USER Mon Sep  4 11:24:14 2023 Pasadena, USA      / Horizons
*******************************************************************************
Target body name: 3554 Amun (1986 EB)             {source: JPL#264}
Center body name: Solar System Barycenter (0)     {source: DE441}
Center-site name: BODY CENTER
*******************************************************************************
Start time      : A.D. 2023-Aug-12 00:00:00.0000 TDB
Stop  time      : A.D. 2023-Aug-13 00:00:00.0000 TDB
Step-size       : 2880 minutes
*******************************************************************************
Center geodetic : 0.0, 0.0, 0.0                   {E-lon(deg),Lat(deg),Alt(km)}
Center cylindric: 0.0, 0.0, 0.0                   {E-lon(deg),Dxy(km),Dz(km)}
Center radii    : (undefined)
Small perturbers: Yes                             {source: SB441-N16}
Output units    : KM-S
Calendar mode   : Mixed Julian/Gregorian
Output type     : GEOMETRIC cartesian states
Output format   : 2 (position and velocity)
Reference frame : Ecliptic of J2000.0
*******************************************************************************
Initial IAU76/J2000 heliocentric ecliptic osculating elements (au, days, deg.):
  EPOCH=  2456013.5 ! 2012-Mar-27.00 (TDB)         Residual RMS= .3509         
   EC= .2803641064595262   QR= .7006891439391807   TP= 2456167.6077421252      
   OM= 358.6486383025199   W=  359.3776256921756   IN= 23.36386476339624       
  Equivalent ICRF heliocentric cartesian coordinates (au, au/d):
   X=-1.211555714043518E+00  Y=-1.537080441083438E-01  Z=-1.802198555157787E-01
  VX= 3.646083675894154E-03 VY=-8.743474528131803E-03 VZ=-9.260179457533671E-03
Asteroid physical parameters (km, seconds, rotational period in hours):        
   GM= n.a.                RAD= 1.6705             ROTPER= 2.53001             
   H= 15.91                G= .150                 B-V= .707                   
                           ALBEDO= .074            STYP= n.a.                  
*******************************************************************************
JDTDB
   X     Y     Z
   VX    VY    VZ
*******************************************************************************
$$SOE
2460168.500000000 = A.D. 2023-Aug-12 00:00:00.0000 TDB 
 X =-1.677447738679155E+08 Y = 6.696066133734500E+07 Z = 2.730879591752808E+07
 VX=-1.226678186646339E+01 VY=-1.833448134514463E+01 VZ=-8.038484330683673E+00
$$EOE
*******************************************************************************
 
TIME

  Barycentric Dynamical Time ("TDB" or T_eph) output was requested. This
continuous coordinate time is equivalent to the relativistic proper time
of a clock at rest in a reference frame co-moving with the solar system
barycenter but outside the system's gravity well. It is the independent
variable in the solar system relativistic equations of motion.

  TDB runs at a uniform rate of one SI second per second and is independent
of irregularities in Earth's rotation.
 
CALENDAR SYSTEM

  Mixed calendar mode was active such that calendar dates after AD 1582-Oct-15
(if any) are in the modern Gregorian system. Dates prior to 1582-Oct-5 (if any)
are in the Julian calendar system, which is automatically extended for dates
prior to its adoption on 45-Jan-1 BC.  The Julian calendar is useful for
matching historical dates. The Gregorian calendar more accurately corresponds
to the Earth's orbital motion and seasons. A "Gregorian-only" calendar mode is
available if such physical events are the primary interest.

REFERENCE FRAME AND COORDINATES

  Ecliptic at the standard reference epoch

    Reference epoch: J2000.0
    X-Y plane: adopted Earth orbital plane at the reference epoch
               Note: IAU76 obliquity of 84381.448 arcseconds wrt ICRF X-Y plane
    X-axis   : ICRF
    Z-axis   : perpendicular to the X-Y plane in the directional (+ or -) sense
               of Earth's north pole at the reference epoch.

  Symbol meaning:

    JDTDB    Julian Day Number, Barycentric Dynamical Time
      X      X-component of position vector (km)
      Y      Y-component of position vector (km)
      Z      Z-component of position vector (km)
      VX     X-component of velocity vector (km/sec)                           
      VY     Y-component of velocity vector (km/sec)                           
      VZ     Z-component of velocity vector (km/sec)                           

ABERRATIONS AND CORRECTIONS

 Geometric state vectors have NO corrections or aberrations applied.

Computations by ...

    Solar System Dynamics Group, Horizons On-Line Ephemeris System
    4800 Oak Grove Drive, Jet Propulsion Laboratory
    Pasadena, CA  91109   USA

    General site: https://ssd.jpl.nasa.gov/
    Mailing list: https://ssd.jpl.nasa.gov/email_list.html
    System news : https://ssd.jpl.nasa.gov/horizons/news.html
    User Guide  : https://ssd.jpl.nasa.gov/horizons/manual.html
    Connect     : browser        https://ssd.jpl.nasa.gov/horizons/app.html#/x
                  API            https://ssd-api.jpl.nasa.gov/doc/horizons.html
                  command-line   telnet ssd.jpl.nasa.gov 6775
                  e-mail/batch   https://ssd.jpl.nasa.gov/ftp/ssd/hrzn_batch.txt
                  scripts        https://ssd.jpl.nasa.gov/ftp/ssd/SCRIPTS
    Author      : Jon.D.Giorgini@jpl.nasa.gov
*******************************************************************************
